[{"OBJECT_NAME":"GAOFEN-9 03","OBJECT_ID":"2020-039A","EPOCH":"2026-03-09T21:55:15.121344","MEAN_MOTION":15.30529116,"ECCENTRICITY":0.0013094,"INCLINATION":97.5219,"RA_OF_ASC_NODE":201.2158,"ARG_OF_PERICENTER":77.4533,"MEAN_ANOMALY":282.8172,"EPHEMERIS_TYPE":0,"CLASSIFICATION_TYPE":"U","NORAD_CAT_ID":45794,"ELEMENT_SET_NO":999,"REV_AT_EPOCH":31856,"BSTAR":0.00039258132,"MEAN_MOTION_DOT":0.00011544,"MEAN_MOTION_DDOT":0},{"OBJECT_NAME":"STARLINK-35663","OBJECT_ID":"2025-263G","EPOCH":"2026-03-09T03:21:56.716128","MEAN_MOTION":15.27568398,"ECCENTRICITY":6.716e-5,"INCLINATION":43.0016,"RA_OF_ASC_NODE":353.895,"ARG_OF_PERICENTER":289.3507,"MEAN_ANOMALY":70.7272,"EPHEMERIS_TYPE":0,"CLASSIFICATION_TYPE":"U","NORAD_CAT_ID":66491,"ELEMENT_SET_NO":999,"REV_AT_EPOCH":1881,"BSTAR":0.000947502,"MEAN_MOTION_DOT":0.00025893,"MEAN_MOTION_DDOT":0}]
